NORAD_CAT_ID,OBJECT_NAME,OBJECT_TYPE,EPOCH,MEAN_MOTION,ECCENTRICITY,INCLINATION,RA_OF_ASC_NODE,ARG_OF_PERICENTER,MEAN_ANOMALY,BSTAR,MEAN_MOTION_DOT,MEAN_MOTION_DDOT,TLE_LINE0,TLE_LINE1,TLE_LINE2,SEMIMAJOR_AXIS,PERIOD,APOGEE,PERIGEE,DECAYED
55647.0,STARLINK-5510,PAYLOAD,2024-02-28 13:55:42,14.98329461,0.0002999,69.9985,250.3923,271.0098,89.0717,5.6161e-05,5.77e-06,0.0,0 STARLINK-5510,1 55647U 23021V   24059.58035121  .00000577  00000-0  56161-4 0  9992,2 55647  69.9985 250.3923 0002999 271.0098  89.0717 14.98329461 57938,6950.195,96.107,574.144,569.975,0.0
55647.0,STARLINK-5510,PAYLOAD,2024-02-28 21:56:22,14.98330018,0.0003001,69.9986,249.5508,270.6136,89.4679,5.6666e-05,5.83e-06,0.0,0 STARLINK-5510,1 55647U 23021V   24059.91415079  .00000583  00000-0  56666-4 0  9990,2 55647  69.9986 249.5508 0003001 270.6136  89.4679 14.98330018 57987,6950.193,96.107,574.144,569.972,0.0
55647.0,STARLINK-5510,PAYLOAD,2024-02-29 13:57:43,14.98329125,0.0002971,69.9988,247.8676,270.5454,89.5364,1.3819e-07,-9.1e-07,0.0,0 STARLINK-5510,1 55647U 23021V   24060.58175293 -.00000091  00000-0  13819-6 0  9996,2 55647  69.9988 247.8676 0002971 270.5454  89.5364 14.98329125 58084,6950.196,96.107,574.125,569.996,0.0
55647.0,STARLINK-5510,PAYLOAD,2024-02-29 20:22:15,14.98329219,0.0003001,69.9988,247.1942,270.3181,89.7634,-8.0939e-06,-1.9e-06,0.0,0 STARLINK-5510,1 55647U 23021V   24060.84879301 -.00000190  00000-0 -80939-5 0  9993,2 55647  69.9988 247.1942 0003001 270.3181  89.7634 14.98329219 57820,6950.195,96.107,574.146,569.975,0.0
55647.0,STARLINK-5510,PAYLOAD,2024-02-29 21:58:23,14.98329441,0.0002999,69.9989,247.0259,270.3527,89.7288,-5.4671e-06,-1.58e-06,0.0,0 STARLINK-5510,1 55647U 23021V   24060.91555283 -.00000158  00000-0 -54671-5 0  9999,2 55647  69.9989 247.0259 0002999 270.3527  89.7288 14.98329441 58137,6950.195,96.107,574.144,569.975,0.0
55647.0,STARLINK-5510,PAYLOAD,2024-03-01 13:59:44,14.98330759,0.0003033,69.9989,245.3426,270.5389,89.5422,8.8966e-06,1.3e-07,0.0,0 STARLINK-5510,1 55647U 23021V   24061.58315132  .00000013  00000-0  88966-5 0  9992,2 55647  69.9989 245.3426 0003033 270.5389  89.5422 14.98330759 58235,6950.191,96.107,574.164,569.948,0.0
55647.0,STARLINK-5510,PAYLOAD,2024-03-01 20:24:16,14.98331624,0.0003041,69.999,244.6692,270.4132,89.6679,1.9407e-06,-7e-07,0.0,0 STARLINK-5510,1 55647U 23021V   24061.85019076 -.00000070  00000-0  19407-5 0  9998,2 55647  69.9990 244.6692 0003041 270.4132  89.6679 14.98331624 57975,6950.188,96.107,574.166,569.939,0.0
55647.0,STARLINK-5510,PAYLOAD,2024-03-01 22:00:24,14.98331853,0.000304,69.999,244.5009,270.4633,89.6178,4.7366e-06,-3.7e-07,0.0,0 STARLINK-5510,1 55647U 23021V   24061.91695049 -.00000037  00000-0  47366-5 0  9993,2 55647  69.9990 244.5009 0003040 270.4633  89.6178 14.98331853 58284,6950.187,96.107,574.165,569.939,0.0
55647.0,STARLINK-5510,PAYLOAD,2024-03-02 14:01:44,14.98332302,0.0003058,69.9991,242.8176,270.4324,89.6485,5.9307e-05,6.15e-06,0.0,0 STARLINK-5510,1 55647U 23021V   24062.58454788  .00000615  00000-0  59307-4 0  9998,2 55647  69.9991 242.8176 0003058 270.4324  89.6485 14.98332302 58389,6950.186,96.107,574.176,569.925,0.0
55647.0,STARLINK-5510,PAYLOAD,2024-03-02 20:26:17,14.98334253,0.000305,69.999,242.1442,270.4329,89.648,6.3098e-05,6.6e-06,0.0,0 STARLINK-5510,1 55647U 23021V   24062.85158607  .00000660  00000-0  63098-4 0  9991,2 55647  69.9990 242.1442 0003050 270.4329  89.6480 14.98334253 58128,6950.18,96.107,574.165,569.925,0.0
55647.0,STARLINK-5510,PAYLOAD,2024-03-02 22:02:25,14.98334233,0.0003049,69.999,241.9759,270.4615,89.6195,6.1781e-05,6.44e-06,0.0,0 STARLINK-5510,1 55647U 23021V   24062.91834594  .00000644  00000-0  61781-4 0  9993,2 55647  69.9990 241.9759 0003049 270.4615  89.6195 14.98334233 58437,6950.18,96.107,574.164,569.926,0.0
55647.0,STARLINK-5510,PAYLOAD,2024-03-03 12:27:38,14.9833004,0.0002964,69.9992,240.461,270.9571,89.1249,-8.7422e-06,-1.97e-06,0.0,0 STARLINK-5510,1 55647U 23021V   24063.51919026 -.00000197  00000-0 -87422-5 0  9990,2 55647  69.9992 240.4610 0002964 270.9571  89.1249 14.98330040 58224,6950.193,96.107,574.118,569.998,0.0
55647.0,STARLINK-5510,PAYLOAD,2024-03-03 14:03:46,14.98329718,0.0002968,69.9992,240.2927,270.9238,89.1581,-1.2117e-05,-2.38e-06,0.0,0 STARLINK-5510,1 55647U 23021V   24063.58595046 -.00000238  00000-0 -12117-4 0  9993,2 55647  69.9992 240.2927 0002968 270.9238  89.1581 14.98329718 58530,6950.194,96.107,574.122,569.996,0.0
55647.0,STARLINK-5510,PAYLOAD,2024-03-03 20:28:18,14.98329525,0.0002903,69.9993,239.6198,269.3712,90.7114,7.6897e-06,-1e-08,0.0,0 STARLINK-5510,1 55647U 23021V   24063.85299000 -.00000001  00000-0  76897-5 0  9997,2 55647  69.9993 239.6198 0002903 269.3712  90.7114 14.98329525 58571,6950.194,96.107,574.077,570.042,0.0
55647.0,STARLINK-5510,PAYLOAD,2024-03-04 12:29:38,14.98334707,0.0003056,69.9986,237.9348,272.6993,87.3816,7.5203e-06,-3e-08,0.0,0 STARLINK-5510,1 55647U 23021V   24064.52058528 -.00000003  00000-0  75203-5 0  9992,2 55647  69.9986 237.9348 0003056 272.6993  87.3816 14.98334707 58376,6950.178,96.107,574.167,569.919,0.0
55647.0,STARLINK-5510,PAYLOAD,2024-03-04 14:05:46,14.98334629,0.0003067,69.9987,237.7665,273.3459,86.7349,1.5473e-05,9.2e-07,0.0,0 STARLINK-5510,1 55647U 23021V   24064.58734480  .00000092  00000-0  15473-4 0  9995,2 55647  69.9987 237.7665 0003067 273.3459  86.7349 14.98334629 58685,6950.179,96.107,574.175,569.912,0.0
55647.0,STARLINK-5510,PAYLOAD,2024-03-04 20:30:18,14.98335846,0.0002865,69.9996,237.0943,267.9707,92.1124,3.9547e-05,3.79e-06,0.0,0 STARLINK-5510,1 55647U 23021V   24064.85438248  .00000379  00000-0  39547-4 0  9994,2 55647  69.9996 237.0943 0002865 267.9707  92.1124 14.98335846 58726,6950.175,96.107,574.031,570.049,0.0
55647.0,STARLINK-5510,PAYLOAD,2024-03-05 14:07:48,14.98319416,0.000324,69.9987,235.2424,269.6742,90.4046,-8.3883e-05,-1.094e-05,0.0,0 STARLINK-5510,1 55647U 23021V   24065.58875746 -.00001094  00000-0 -83883-4 0  9992,2 55647  69.9987 235.2424 0003240 269.6742  90.4046 14.98319416 58837,6950.226,96.108,574.342,569.839,0.0
55647.0,STARLINK-5510,PAYLOAD,2024-03-05 20:32:21,14.98316548,0.0003068,69.9996,234.5701,269.4603,90.6204,-8.878e-05,-1.152e-05,0.0,0 STARLINK-5510,1 55647U 23021V   24065.85580153 -.00001152  00000-0 -88780-4 0  9993,2 55647  69.9996 234.5701 0003068 269.4603  90.6204 14.98316548 58571,6950.234,96.108,574.232,569.967,0.0
55647.0,STARLINK-5510,PAYLOAD,2024-03-06 10:57:33,14.98323393,0.0003126,69.9996,233.0544,269.819,90.2611,-7.3722e-05,-9.72e-06,0.0,0 STARLINK-5510,1 55647U 23021V   24066.45664015 -.00000972  00000-0 -73722-4 0  9999,2 55647  69.9996 233.0544 0003126 269.8190  90.2611 14.98323393 58664,6950.213,96.107,574.251,569.906,0.0
55647.0,STARLINK-5510,PAYLOAD,2024-03-06 14:09:49,14.98323618,0.0003138,69.9996,232.7177,269.6551,90.4248,-6.5437e-05,-8.74e-06,0.0,0 STARLINK-5510,1 55647U 23021V   24066.59016038 -.00000874  00000-0 -65437-4 0  9995,2 55647  69.9996 232.7177 0003138 269.6551  90.4248 14.98323618 58987,6950.213,96.107,574.259,569.897,0.0
55647.0,STARLINK-5510,PAYLOAD,2024-03-07 14:11:50,14.98323971,0.0003216,69.9995,230.1926,269.6663,90.4127,0.00021042,2.418e-05,0.0,0 STARLINK-5510,1 55647U 23021V   24067.59155609  .00002418  00000-0  21042-3 0  9991,2 55647  69.9995 230.1926 0003216 269.6663  90.4127 14.98323971 59137,6950.212,96.107,574.312,569.841,0.0
55647.0,STARLINK-5510,PAYLOAD,2024-03-08 12:37:42,14.98336356,0.0003145,69.9998,227.8363,270.817,89.2629,0.0001538,1.743e-05,0.0,0 STARLINK-5510,1 55647U 23021V   24068.52618993  .00001743  00000-0  15380-3 0  9993,2 55647  69.9998 227.8363 0003145 270.8170  89.2629 14.98336356 58971,6950.173,96.107,574.224,569.852,0.0
55647.0,STARLINK-5510,PAYLOAD,2024-03-08 20:38:22,14.98341302,0.0003143,69.9998,226.9948,270.9944,89.0854,0.00017254,1.967e-05,0.0,0 STARLINK-5510,1 55647U 23021V   24068.85998434  .00001967  00000-0  17254-3 0  9990,2 55647  69.9998 226.9948 0003143 270.9944  89.0854 14.98341302 59323,6950.158,96.106,574.207,569.839,0.0
55647.0,STARLINK-5510,PAYLOAD,2024-03-09 11:03:35,14.98335152,0.0002979,70.0002,225.4798,271.5587,88.5231,-3.5506e-05,-5.17e-06,0.0,0 STARLINK-5510,1 55647U 23021V   24069.46083154 -.00000517  00000-0 -35506-4 0  9995,2 55647  70.0002 225.4798 0002979 271.5587  88.5231 14.98335152 59111,6950.177,96.107,574.112,569.972,0.0
55647.0,STARLINK-5510,PAYLOAD,2024-03-09 12:39:43,14.98334555,0.0002984,70.0002,225.3115,271.539,88.5428,-4.2543e-05,-6.01e-06,0.0,0 STARLINK-5510,1 55647U 23021V   24069.52759158 -.00000601  00000-0 -42543-4 0  9999,2 55647  70.0002 225.3115 0002984 271.5390  88.5428 14.98334555 59429,6950.179,96.107,574.118,569.97,0.0
55647.0,STARLINK-5510,PAYLOAD,2024-03-10 12:41:46,14.983148,0.0003109,69.9995,222.7867,269.5742,90.5061,-0.00031267,-3.82e-05,0.0,0 STARLINK-5510,1 55647U 23021V   24070.52900918 -.00003820  00000-0 -31267-3 0  9999,2 55647  69.9995 222.7867 0003109 269.5742  90.5061 14.98314800 59270,6950.24,96.108,574.266,569.944,0.0
55647.0,STARLINK-5510,PAYLOAD,2024-03-10 19:06:18,14.98312368,0.0003149,70.0,222.1143,266.6712,93.4087,-0.00030884,-3.774e-05,0.0,0 STARLINK-5510,1 55647U 23021V   24070.79605304 -.00003774  00000-0 -30884-3 0  9991,2 55647  70.0000 222.1143 0003149 266.6712  93.4087 14.98312368 59615,6950.247,96.108,574.301,569.924,0.0
55647.0,STARLINK-5510,PAYLOAD,2024-03-11 11:07:39,14.98319638,0.0004663,69.9986,220.429,287.969,72.096,-5.8796e-05,-7.95e-06,0.0,0 STARLINK-5510,1 55647U 23021V   24071.46364693 -.00000795  00000-0 -58796-4 0  9992,2 55647  69.9986 220.4290 0004663 287.9690  72.0960 14.98319638 59410,6950.225,96.108,575.331,568.849,0.0
55647.0,STARLINK-5510,PAYLOAD,2024-03-11 15:56:02,14.98330501,0.0003059,69.9981,219.9231,263.8925,96.1886,3.247e-05,2.94e-06,0.0,0 STARLINK-5510,1 55647U 23021V   24071.66391686  .00000294  00000-0  32470-4 0  9999,2 55647  69.9981 219.9231 0003059 263.8925  96.1886 14.98330501 59444,6950.191,96.107,574.182,569.93,0.0
